STARLINK-1221
1 45227U 20012BB  26092.56293637  .00020982  00000+0  47927-3 0  9997
2 45227  53.0650 156.4105 0003776  79.2710 280.8720 15.42837310340392
